KAITUO 1B               
1 40912U 15049P   17314.70378351  .00003551  00000-0  17657-3 0  9998
2 40912  97.4523 320.2207 0017050  56.3295  32.9154 15.18160504118518
TIANWANG 1C (TW-1C)     
1 40926U 15051B   17314.80864527  .00015318  00000-0  32047-3 0  9996
2 40926  97.2138 353.3384 0011024   6.9782  81.1759 15.45489245119540
TIANWANG 1B (TW-1B)     
1 40927U 15051C   17314.79527753  .00015225  00000-0  33123-3 0  9995
2 40927  97.2220 353.2760 0010888  18.1748  92.9838 15.44336114119479
TIANWANG 1A (TW-1A)     
1 40928U 15051D   17314.86970353  .00005319  00000-0  14706-3 0  9991
2 40928  97.2110 348.0318 0013307  37.8827  72.7728 15.37360557119221
LAPAN-A2 (IO-86)        
1 40931U 15052B   17314.34726806  .00001509  00000-0  12169-3 0  9999
2 40931   5.9975 270.5375 0012277 152.0518 208.1213 14.76556577114606
LQSAT                   
1 40958U 15057A   17314.84204066  .00000080  00000-0  20273-4 0  9996
2 40958  97.9641  27.5011 0017167 320.1691  39.8229 14.72998911112709
CHUBUSAT-2              
1 41338U 16012B   17314.30490530  .00000673  00000-0  46173-4 0  9990
2 41338  31.0034 264.1861 0013785  66.1354 294.0724 14.99862771 94947
CHUBUSAT-3              
1 41339U 16012C   17314.47965667  .00000776  00000-0  54068-4 0  9993
2 41339  31.0104 261.9926 0013658  75.4091 284.8024 15.00059686 94950
OUFTI-1                 
1 41458U 16025C   17314.79567283  .00003816  00000-0  20269-3 0  9999
2 41458  98.1696   0.7139 0173556 158.9706 201.8722 15.03902664 84602
E-ST@R-II               
1 41459U 16025D   17314.76760404  .00002843  00000-0  15329-3 0  9997
2 41459  98.1658   0.6004 0173528 159.5982 201.2240 15.03672479 84598
AAUSAT 4                
1 41460U 16025E   17314.80112834  .00005198  00000-0  27411-3 0  9993
2 41460  98.1630   0.8477 0166331 156.9394 203.9365 15.04835714 84634
NUSAT 1 (LO-87)         
1 41557U 16033B   17314.83678290  .00003605  00000-0  13578-3 0  9995
2 41557  97.4535  34.3253 0013399 203.4005 156.6626 15.27676506 80810
BEESAT-4                
1 41619U 16040W   17314.23857394  .00003555  00000-0  16137-3 0  9998
2 41619  97.4455  15.1304 0010213 278.3026  81.7052 15.21408028 64796
PRATHAM                 
1 41783U 16059A   17314.60576273  .00000145  00000-0  37596-4 0  9990
2 41783  98.1497  14.3291 0034747  62.9003 297.5737 14.62877326 60000
ALSAT 1N                
1 41789U 16059G   17314.81451479  .00000244  00000-0  55465-4 0  9994
2 41789  98.1489  15.3226 0029458  56.6584 303.7393 14.64098248 60067
NAYIF-1 (EO-88)         
1 42017U 17008BX  17314.52948341  .00003916  00000-0  16610-3 0  9998
2 42017  97.4783  15.6194 0008111  73.8330 286.3799 15.23679745 40765
LILACSAT-1              
1 42725U 98067ME  17314.73618354  .00028614  00000-0  34838-3 0  9993
2 42725  51.6395  24.3592 0004870 125.5225 234.6223 15.60273588 26316
MAX VALIER SAT          
1 42778U 17036P   17314.77294548  .00003016  00000-0  13963-3 0  9992
2 42778  97.4346  12.7860 0014434 112.5646 247.7119 15.20799848 21308
